STARLINK-33819          
1 63494U 25071B   25322.22704177  .00032281  00000+0  10978-2 0  9997
2 63494  53.1600 299.8493 0001199  69.8364 290.2766 15.30183830 35656
STARLINK-33845          
1 63495U 25071C   25322.79534863  .00034812  00000+0  11816-2 0  9997
2 63495  53.1613 294.8659 0001484  99.6126 260.5042 15.30209508 35775
STARLINK-33829          
1 63496U 25071D   25322.83335647  .00062634  00000+0  21115-2 0  9998
2 63496  53.1592 294.8605 0001237  94.3232  28.0391 15.30162536  5960
STARLINK-33815          
1 63497U 25071E   25322.24128606  .00014160  00000+0  48940-3 0  9996
2 63497  53.1597 297.8066 0001241  93.3115 266.8028 15.30192500 35702
STARLINK-33833          
1 63498U 25071F   25322.88598887  .00028783  00000+0  97961-3 0  9992
2 63498  53.1592 294.7190 0001391 104.5615 255.5540 15.30218544 35800
STARLINK-33534          
1 63499U 25071G   25322.22863286  .00035343  00000+0  12014-2 0  9994
2 63499  53.1590 297.7267 0001131  87.2408 272.8722 15.30154091 35682
STARLINK-33838          
1 63500U 25071H   25322.21173640  .00043481  00000+0  14718-2 0  9999
2 63500  53.1613 297.6195 0001638 123.6582 236.4576 15.30194955 35495
STARLINK-33837          
1 63501U 25071J   25322.24762078  .00062965  00000+0  21212-2 0  9997
2 63501  53.1606 297.8446 0001585  90.2611 269.8571 15.30182235 35642
STARLINK-33818          
1 63502U 25071K   25322.20857164  .00033923  00000+0  11528-2 0  9996
2 63502  53.1615 297.5991 0001373 103.1730 256.9424 15.30185757 35709
STARLINK-33583          
1 63503U 25071L   25322.20710051  .00024675  00000+0  84247-3 0  9993
2 63503  53.1619 300.4245 0001747 126.1113 234.0050 15.30199320 35674
STARLINK-33811          
1 63504U 25071M   25322.71009774  .00027350  00000+0  93191-3 0  9994
2 63504  53.1609 295.7514 0001322  87.8504 272.2648 15.30208110 35715
STARLINK-33825          
1 63505U 25071N   25322.19907113  .00044219  00000+0  14957-2 0  9996
2 63505  53.1623 297.5366 0000978 109.7631 250.3475 15.30211458 35701
STARLINK-33792          
1 63506U 25071P   25322.20329523  .00029625  00000+0  10086-2 0  9995
2 63506  53.1620 297.5638 0001056  96.4023 263.7098 15.30193953 35658
STARLINK-33843          
1 63507U 25071Q   25322.81009350  .00083950  00000+0  28057-2 0  9994
2 63507  53.1591 294.9188 0001253  95.2383 264.8760 15.30303250 35776
STARLINK-33809          
1 63508U 25071R   25322.21067720  .00031062  00000+0  10571-2 0  9993
2 63508  53.1613 297.5762 0001310  77.6280 282.4867 15.30181506 35641
STARLINK-33678          
1 63509U 25071S   25322.22650426  .00019534  00000+0  66999-3 0  9992
2 63509  53.1599 297.6753 0001326  89.1742 270.9411 15.30196702 35432
STARLINK-33764          
1 63510U 25071T   25322.84388620  .00044843  00000+0  15165-2 0  9995
2 63510  53.1599 295.1277 0001295  88.7825 271.3324 15.30211627 35779
STARLINK-33804          
1 63511U 25071U   25322.17807726  .00028362  00000+0  96650-3 0  9992
2 63511  53.1592 298.0819 0001574 112.0657 248.0511 15.30185404 35324
STARLINK-33751          
1 63512U 25071V   25322.23705742  .00021256  00000+0  72782-3 0  9990
2 63512  53.1607 297.7398 0001075  98.8915 261.2208 15.30196242 35685
STARLINK-33750          
1 63513U 25071W   25322.24022416  .00012785  00000+0  44312-3 0  9997
2 63513  53.1615 297.7582 0001603 102.5197 257.5983 15.30194974 35680
STARLINK-33786          
1 63514U 25071X   25322.24866840  .00040771  00000+0  13816-2 0  9995
2 63514  53.1609 297.8103 0001564 110.0915 250.0254 15.30189823 35329
STARLINK-33796          
1 63515U 25071Y   25322.20540308  .00043654  00000+0  14777-2 0  9990
2 63515  53.1618 297.5387 0002145  46.6258 313.4921 15.30192748 35708
STARLINK-33785          
1 63516U 25071Z   25322.24550110  .00018630  00000+0  63962-3 0  9994
2 63516  53.1600 297.7930 0001411  91.9214 268.1948 15.30196727 35689
STARLINK-33803          
1 63517U 25071AA  25322.21277473 -.00013458  00000+0 -44331-3 0  9994
2 63517  53.1610 297.5804 0001463 116.0310 244.0842 15.30181605 35700
STARLINK-33807          
1 63518U 25071AB  25322.22914470  .00035789  00000+0  12150-2 0  9993
2 63518  53.1596 299.8203 0001339  81.1461 278.9692 15.30191197 35675
STARLINK-33787          
1 63519U 25071AC  25322.23442037  .00043910  00000+0  14861-2 0  9996
2 63519  53.1593 299.8542 0001118 110.5153 249.5968 15.30196583 35303
SOYUZ-MS 27             
1 63520U 25072A   25321.90043553  .00014804  00000+0  26899-3 0  9997
2 63520  51.6331 265.4223 0004180  82.0364 278.1099 15.49772275 20206
TJS-17                  
1 63524U 25073A   25322.81738711 -.00000050  00000+0  00000+0 0  9991
2 63524   0.5188  83.7237 0003332 192.8928 240.2709  1.00272319  2184
STARLINK-11669 [DTC]    
1 63548U 25075A   25322.80184781  .00234911  00000+0  17787-2 0  9997
2 63548  43.0021 101.7702 0002582 275.4330  84.6243 15.70896044 35815
STARLINK-11665 [DTC]    
1 63549U 25075B   25322.12899934  .00301720  00000+0  22659-2 0  9993
2 63549  42.9985 106.1989 0001435  67.0867 293.0152 15.70888481 35704
STARLINK-11667 [DTC]    
1 63550U 25075C   25322.72245493  .00228236  00000+0  17177-2 0  9995
2 63550  42.9972 102.9187 0002214 245.5067 114.5569 15.71061145 35796
STARLINK-11695 [DTC]    
1 63551U 25075D   25322.10335772  .00251426  00000+0  19009-2 0  9991
2 63551  42.9990 105.9921 0000738 343.8659  16.2185 15.70880879 35709
STARLINK-11685 [DTC]    
1 63552U 25075E   25322.81246213  .00011421  00000+0  92113-4 0  9999
2 63552  42.9997 101.8531 0002296 254.2930 105.7684 15.70908243 35813
STARLINK-11697 [DTC]    
1 63553U 25075F   25322.75419028  .00212526  00000+0  16006-2 0  9993
2 63553  42.9986 102.2777 0003971 267.1751  92.8662 15.71088703 35806
STARLINK-11680 [DTC]    
1 63554U 25075G   25322.78074550  .00296852  00000+0  22119-2 0  9990
2 63554  43.0003 102.4924 0002549 316.0606  44.0059 15.71090801 35809
STARLINK-11687 [DTC]    
1 63555U 25075H   25322.77012986  .00260240  00000+0  19473-2 0  9996
2 63555  42.9990 102.4058 0001902 325.2750  34.7993 15.71100991 35800
STARLINK-11626 [DTC]    
1 63556U 25075J   25322.73308576  .00262710  00000+0  19797-2 0  9999
2 63556  43.0004 103.0028 0002371 279.9413  80.1187 15.70925400 35792
STARLINK-11668 [DTC]    
1 63557U 25075K   25322.79136653  .00338712  00000+0  25043-2 0  9998
2 63557  42.9980 102.5761 0002057 268.2335  91.8297 15.71149783 35803
STARLINK-11657 [DTC]    
1 63558U 25075L   25322.77543446  .00374427  00000+0  27548-2 0  9994
2 63558  42.9996 102.4475 0002533 286.9693  73.0897 15.71159840 35808
STARLINK-11606 [DTC]    
1 63559U 25075M   25322.74356931  .00211409  00000+0  16005-2 0  9999
2 63559  42.9991 102.1901 0003508 258.2120 101.8354 15.70970214 35808
STARLINK-11592 [DTC]    
1 63560U 25075N   25322.75950447  .00294421  00000+0  21954-2 0  9998
2 63560  43.0071 102.3086 0002495 286.3268  73.7325 15.71080106 35804
STARLINK-32953          
1 63561U 25075P   25322.65225512  .00027228  00000+0  99474-3 0  9998
2 63561  43.0024 177.8885 0001040 243.6011 116.4734 15.27599446 34940
STARLINK-32951          
1 63562U 25075Q   25322.64839699  .00032203  00000+0  11743-2 0  9996
2 63562  43.0002 177.8354 0001433 265.9298  94.1390 15.27590304 34953
STARLINK-32958          
1 63563U 25075R   25322.63811867  .00020421  00000+0  74952-3 0  9994
2 63563  42.9989 177.7812 0001199 262.6831  97.3884 15.27581467 34942
STARLINK-32928          
1 63564U 25075S   25322.88296294  .00024244  00000+0  88729-3 0  9997
2 63564  42.9980 176.1751 0001087 269.2562  90.8165 15.27593060 34996
STARLINK-32687          
1 63565U 25075T   25322.64711271  .00031226  00000+0  11390-2 0  9996
2 63565  43.0018 177.8225 0000693 265.8931  94.1841 15.27592540 34955
STARLINK-32950          
1 63566U 25075U   25322.87779446  .00054543  00000+0  19728-2 0  9990
2 63566  42.9954 176.0729 0001090 270.4021  89.6705 15.27649503 34980
STARLINK-32954          
1 63567U 25075V   25322.62912012  .00030061  00000+0  10971-2 0  9992
2 63567  42.9972 177.6832 0000954 267.2372  92.8370 15.27592054 34942
STARLINK-32940          
1 63568U 25075W   25322.63425874  .00031215  00000+0  11387-2 0  9993
2 63568  42.9980 177.7228 0000795 269.6782  90.3979 15.27589336 34943
STARLINK-32959          
1 63569U 25076A   25322.78397623  .00030201  00000+0  11032-2 0  9992
2 63569  42.9984 232.0102 0000415 325.6979  34.3845 15.27560651 34820
STARLINK-32956          
1 63570U 25076B   25322.79154294  .00032288  00000+0  11778-2 0  9994
2 63570  43.0019 231.2035 0001430 277.0493  83.0196 15.27577121 34828
STARLINK-33722          
1 63571U 25076C   25322.74076609  .00025219  00000+0  92253-3 0  9997
2 63571  43.0027 228.1614 0002852 288.4766  71.5776 15.27588231 34857
STARLINK-33739          
1 63572U 25076D   25322.77547108  .00027995  00000+0  10241-2 0  9997
2 63572  43.0019 228.4179 0002769 271.3979  88.6555 15.27541327 34862
STARLINK-33683          
1 63573U 25076E   25322.77417562  .00020699  00000+0  76003-3 0  9991
2 63573  43.0006 228.4064 0001089 279.6948  80.3780 15.27560640 34861
STARLINK-33732          
1 63575U 25076G   25322.76132448  .00022347  00000+0  81921-3 0  9996
2 63575  43.0007 228.3110 0001037 276.3757  83.6976 15.27576824 34864
STARLINK-33800          
1 63576U 25076H   25322.80101513  .00026752  00000+0  97772-3 0  9996
2 63576  43.0029 227.7521 0001503 269.6392  90.4288 15.27593748 34873
STARLINK-33632          
1 63577U 25076J   25322.77160580  .00027856  00000+0  10177-2 0  9991
2 63577  42.9988 228.3861 0000503 281.0448  79.0347 15.27589773 34860
STARLINK-33719          
1 63578U 25076K   25322.81000105  .00035693  00000+0  12996-2 0  9992
2 63578  42.9982 227.8149 0001728 277.9633  82.1023 15.27598019 34878
STARLINK-33755          
1 63579U 25076L   25322.81127780  .00026777  00000+0  97895-3 0  9997
2 63579  43.0024 227.7444 0001356 269.9223  90.1473 15.27583235 34870
